ONEWEB-0423             
1 51627U 22012F   26167.84097791 -.00000015  00000+0 -70660-4 0  9995
2 51627  87.9136   5.9327 0001884  84.5771 275.5575 13.17650081213651
ONEWEB-0425             
1 51628U 22012G   26167.87860674 -.00005773  00000+0 -16596-1 0  9998
2 51628  87.8830  36.3282 0001785  76.8808 283.2519 13.10322592209289
ONEWEB-0428             
1 51629U 22012H   26167.85863188  .00000648  00000+0  18186-2 0  9992
2 51629  87.8833  36.3397 0001747  82.0928 278.0398 13.10371528209246
ONEWEB-0431             
1 51630U 22012J   26167.67587898 -.00000114  00000+0 -36378-3 0  9999
2 51630  87.8839  36.3688 0001572 101.5563 258.5741 13.10377528209279
ONEWEB-0434             
1 51631U 22012K   26167.88206383 -.00006175  00000+0 -17750-1 0  9994
2 51631  87.8831  36.3520 0002013  69.8776 290.2567 13.10319586209280
ONEWEB-0435             
1 51632U 22012L   26167.89010867  .00001732  00000+0  49242-2 0  9990
2 51632  87.8855  36.3408 0001815  89.9701 270.1634 13.10391844209270
ONEWEB-0436             
1 51633U 22012M   26167.83253369 -.00000028  00000+0 -10447-3 0  9996
2 51633  87.9140   5.9161 0001628  90.2287 269.9031 13.17648801213630
ONEWEB-0438             
1 51634U 22012N   26167.56814587 -.00000926  00000+0 -26889-2 0  9995
2 51634  87.8833  36.4056 0002201  82.0754 278.0623 13.10360814209267
ONEWEB-0439             
1 51635U 22012P   26167.87695465 -.00006231  00000+0 -17912-1 0  9993
2 51635  87.8831  36.3300 0002574  87.3010 272.8412 13.10321225209286
ONEWEB-0442             
1 51636U 22012Q   26167.82494575 -.00000028  00000+0 -10621-3 0  9998
2 51636  87.9130   5.9504 0002391  82.2119 277.9284 13.17649178213622
ONEWEB-0443             
1 51637U 22012R   26167.84434291  .00000022  00000+0  23058-4 0  9991
2 51637  87.9131   5.9475 0001756  76.7832 283.3495 13.17649842213673
ONEWEB-0444             
1 51638U 22012S   26167.86697809 -.00005447  00000+0 -15657-1 0  9991
2 51638  87.8804  36.3307 0002118  75.4452 284.6911 13.10339101209296
ONEWEB-0445             
1 51639U 22012T   26167.88843382  .00004071  00000+0  11613-1 0  9991
2 51639  87.8842  36.3161 0002046  89.7365 270.3997 13.10413902209308
ONEWEB-0446             
1 51640U 22012U   26167.86526992  .00000160  00000+0  42335-3 0  9998
2 51640  87.8831  36.3481 0001908  85.9727 274.1619 13.10370542209281
ONEWEB-0448             
1 51641U 22012V   26167.87030197 -.00004427  00000+0 -12732-1 0  9995
2 51641  87.8826  36.3439 0001376  74.5544 285.5735 13.10330739209255
ONEWEB-0449             
1 51642U 22012W   26167.87527619 -.00004251  00000+0 -12226-1 0  9999
2 51642  87.8830  36.3283 0002173  74.1240 286.0126 13.10332836209264
ONEWEB-0451             
1 51643U 22012X   26167.82917065  .00000044  00000+0  80063-4 0  9994
2 51643  87.9143   5.9143 0002009  82.9674 277.1686 13.17648818213619
ONEWEB-0452             
1 51644U 22012Y   26167.82747128  .00000023  00000+0  26546-4 0  9999
2 51644  87.9132   5.9514 0001880  78.1386 281.9956 13.17648738213628
ONEWEB-0456             
1 51646U 22012AA  26167.88509583  .00004144  00000+0  11824-1 0  9996
2 51646  87.8844  36.3134 0001582  82.8008 277.3299 13.10412935209307
ONEWEB-0457             
1 51647U 22012AB  26167.86181674 -.00001552  00000+0 -44819-2 0  9995
2 51647  87.8828  36.3364 0002461  84.5597 275.5811 13.10373095209307
ONEWEB-0458             
1 51648U 22012AC  26167.88351696 -.00000368  00000+0 -10914-2 0  9994
2 51648  87.8838  36.3198 0001822  76.1313 284.0016 13.10370997209262
ONEWEB-0461             
1 51649U 22012AD  26167.84940884  .00000046  00000+0  86328-4 0  9999
2 51649  87.9142   5.9242 0001941  89.9509 270.1845 13.17648664213846
ONEWEB-0463             
1 51650U 22012AE  26167.83085545  .00000048  00000+0  90922-4 0  9991
2 51650  87.9130   5.9505 0001975  91.2726 268.8632 13.17649049213623
ONEWEB-0464             
1 51651U 22012AF  26167.88027193 -.00007209  00000+0 -20721-1 0  9997
2 51651  87.8827  36.3407 0001638  81.1923 278.9390 13.10312158209289
ONEWEB-0468             
1 51652U 22012AG  26167.88676647  .00004599  00000+0  13123-1 0  9997
2 51652  87.8845  36.3360 0001616  77.0976 283.0332 13.10416353209269
ONEWEB-0473             
1 51653U 22012AH  26167.87193714 -.00002826  00000+0 -81374-2 0  9993
2 51653  87.8829  36.3395 0001798  82.1465 277.9866 13.10344746209261
ONEWEB-0474             
1 51654U 22012AJ  26167.86363181 -.00004326  00000+0 -12436-1 0  9999
2 51654  87.8783  36.3246 0001624  79.8048 280.3262 13.10360943209258
ONEWEB-0475             
1 51655U 22012AK  26167.84266646  .00000002  00000+0 -27765-4 0  9996
2 51655  87.9133   5.9410 0001482  69.7396 290.3895 13.17648584213648
ONEWEB-0490             
1 54113U 22138A   26167.67968344  .00000038  00000+0  61408-4 0  9992
2 54113  87.9176 305.0678 0001691 101.2921 258.8401 13.19725369176767
ONEWEB-0492             
1 54114U 22138B   26167.85659586  .00000007  00000+0 -14121-4 0  9995
2 54114  87.9168 305.0339 0001845 106.8567 253.2768 13.19725709176797
