OBJECT_NAME,OBJECT_ID,EPOCH,MEAN_MOTION,ECCENTRICITY,INCLINATION,RA_OF_ASC_NODE,ARG_OF_PERICENTER,MEAN_ANOMALY,EPHEMERIS_TYPE,CLASSIFICATION_TYPE,NORAD_CAT_ID,ELEMENT_SET_NO,REV_AT_EPOCH,BSTAR,MEAN_MOTION_DOT,MEAN_MOTION_DDOT
ONEWEB-0423,2022-012F,2026-06-16T20:11:00.491424,13.17650081,.0001884,87.9136,5.9327,84.5771,275.5575,0,U,51627,999,21365,-.7066E-4,-.15E-6,0
ONEWEB-0425,2022-012G,2026-06-16T21:05:11.622336,13.10322592,.0001785,87.8830,36.3282,76.8808,283.2519,0,U,51628,999,20928,-.16596E-1,-.5773E-4,0
ONEWEB-0428,2022-012H,2026-06-16T20:36:25.794432,13.10371528,.0001747,87.8833,36.3397,82.0928,278.0398,0,U,51629,999,20924,.18186E-2,.648E-5,0
ONEWEB-0431,2022-012J,2026-06-16T16:13:15.943872,13.10377528,.0001572,87.8839,36.3688,101.5563,258.5741,0,U,51630,999,20927,-.36378E-3,-.114E-5,0
ONEWEB-0434,2022-012K,2026-06-16T21:10:10.314912,13.10319586,.0002013,87.8831,36.3520,69.8776,290.2567,0,U,51631,999,20928,-.1775E-1,-.6175E-4,0
ONEWEB-0435,2022-012L,2026-06-16T21:21:45.389088,13.10391844,.0001815,87.8855,36.3408,89.9701,270.1634,0,U,51632,999,20927,.49242E-2,.1732E-4,0
ONEWEB-0436,2022-012M,2026-06-16T19:58:50.910816,13.17648801,.0001628,87.9140,5.9161,90.2287,269.9031,0,U,51633,999,21363,-.10447E-3,-.28E-6,0
ONEWEB-0438,2022-012N,2026-06-16T13:38:07.803168,13.10360814,.0002201,87.8833,36.4056,82.0754,278.0623,0,U,51634,999,20926,-.26889E-2,-.926E-5,0
ONEWEB-0439,2022-012P,2026-06-16T21:02:48.881760,13.10321225,.0002574,87.8831,36.3300,87.3010,272.8412,0,U,51635,999,20928,-.17912E-1,-.6231E-4,0
ONEWEB-0442,2022-012Q,2026-06-16T19:47:55.312800,13.17649178,.0002391,87.9130,5.9504,82.2119,277.9284,0,U,51636,999,21362,-.10621E-3,-.28E-6,0
ONEWEB-0443,2022-012R,2026-06-16T20:15:51.227424,13.17649842,.0001756,87.9131,5.9475,76.7832,283.3495,0,U,51637,999,21367,.23058E-4,.22E-6,0
ONEWEB-0444,2022-012S,2026-06-16T20:48:26.906976,13.10339101,.0002118,87.8804,36.3307,75.4452,284.6911,0,U,51638,999,20929,-.15657E-1,-.5447E-4,0
ONEWEB-0445,2022-012T,2026-06-16T21:19:20.682048,13.10413902,.0002046,87.8842,36.3161,89.7365,270.3997,0,U,51639,999,20930,.11613E-1,.4071E-4,0
ONEWEB-0446,2022-012U,2026-06-16T20:45:59.321088,13.10370542,.0001908,87.8831,36.3481,85.9727,274.1619,0,U,51640,999,20928,.42335E-3,.16E-5,0
ONEWEB-0448,2022-012V,2026-06-16T20:53:14.090208,13.10330739,.0001376,87.8826,36.3439,74.5544,285.5735,0,U,51641,999,20925,-.12732E-1,-.4427E-4,0
ONEWEB-0449,2022-012W,2026-06-16T21:00:23.862816,13.10332836,.0002173,87.8830,36.3283,74.1240,286.0126,0,U,51642,999,20926,-.12226E-1,-.4251E-4,0
ONEWEB-0451,2022-012X,2026-06-16T19:54:00.344160,13.17648818,.0002009,87.9143,5.9143,82.9674,277.1686,0,U,51643,999,21361,.80063E-4,.44E-6,0
ONEWEB-0452,2022-012Y,2026-06-16T19:51:33.518592,13.17648738,.000188,87.9132,5.9514,78.1386,281.9956,0,U,51644,999,21362,.26546E-4,.23E-6,0
ONEWEB-0456,2022-012AA,2026-06-16T21:14:32.279712,13.10412935,.0001582,87.8844,36.3134,82.8008,277.3299,0,U,51646,999,20930,.11824E-1,.4144E-4,0
ONEWEB-0457,2022-012AB,2026-06-16T20:41:00.966336,13.10373095,.0002461,87.8828,36.3364,84.5597,275.5811,0,U,51647,999,20930,-.44819E-2,-.1552E-4,0
ONEWEB-0458,2022-012AC,2026-06-16T21:12:15.865344,13.10370997,.0001822,87.8838,36.3198,76.1313,284.0016,0,U,51648,999,20926,-.10914E-2,-.368E-5,0
ONEWEB-0461,2022-012AD,2026-06-16T20:23:08.923776,13.17648664,.0001941,87.9142,5.9242,89.9509,270.1845,0,U,51649,999,21384,.86328E-4,.46E-6,0
ONEWEB-0463,2022-012AE,2026-06-16T19:56:25.910880,13.17649049,.0001975,87.9130,5.9505,91.2726,268.8632,0,U,51650,999,21362,.90922E-4,.48E-6,0
ONEWEB-0464,2022-012AF,2026-06-16T21:07:35.494752,13.10312158,.0001638,87.8827,36.3407,81.1923,278.9390,0,U,51651,999,20928,-.20721E-1,-.7209E-4,0
ONEWEB-0468,2022-012AG,2026-06-16T21:16:56.623008,13.10416353,.0001616,87.8845,36.3360,77.0976,283.0332,0,U,51652,999,20926,.13123E-1,.4599E-4,0
ONEWEB-0473,2022-012AH,2026-06-16T20:55:35.368896,13.10344746,.0001798,87.8829,36.3395,82.1465,277.9866,0,U,51653,999,20926,-.81374E-2,-.2826E-4,0
ONEWEB-0474,2022-012AJ,2026-06-16T20:43:37.788384,13.10360943,.0001624,87.8783,36.3246,79.8048,280.3262,0,U,51654,999,20925,-.12436E-1,-.4326E-4,0
ONEWEB-0475,2022-012AK,2026-06-16T20:13:26.382144,13.17648584,.0001482,87.9133,5.9410,69.7396,290.3895,0,U,51655,999,21364,-.27765E-4,.2E-7,0
ONEWEB-0490,2022-138A,2026-06-16T16:18:44.649216,13.19725369,.0001691,87.9176,305.0678,101.2921,258.8401,0,U,54113,999,17676,.61408E-4,.38E-6,0
ONEWEB-0492,2022-138B,2026-06-16T20:33:29.882304,13.19725709,.0001845,87.9168,305.0339,106.8567,253.2768,0,U,54114,999,17679,-.14121E-4,.7E-7,0
